[{"OBJECT_NAME":"STARLINK-2358","OBJECT_ID":"2021-021AQ","EPOCH":"2026-03-09T19:26:01.327776","MEAN_MOTION":15.30190168,"ECCENTRICITY":9.624e-5,"INCLINATION":53.1616,"RA_OF_ASC_NODE":267.5593,"ARG_OF_PERICENTER":68.7622,"MEAN_ANOMALY":291.3482,"EPHEMERIS_TYPE":0,"CLASSIFICATION_TYPE":"U","NORAD_CAT_ID":47898,"ELEMENT_SET_NO":999,"REV_AT_EPOCH":27621,"BSTAR":-5.3122824e-5,"MEAN_MOTION_DOT":-1.931e-5,"MEAN_MOTION_DDOT":0},{"OBJECT_NAME":"CZ-4 DEB","OBJECT_ID":"2003-049H","EPOCH":"2026-03-08T08:27:28.944576","MEAN_MOTION":15.27137095,"ECCENTRICITY":0.00307627,"INCLINATION":98.6284,"RA_OF_ASC_NODE":272.5918,"ARG_OF_PERICENTER":169.0311,"MEAN_ANOMALY":191.1601,"EPHEMERIS_TYPE":0,"CLASSIFICATION_TYPE":"U","NORAD_CAT_ID":35381,"ELEMENT_SET_NO":999,"REV_AT_EPOCH":18390,"BSTAR":0.0032047887,"MEAN_MOTION_DOT":0.00087287,"MEAN_MOTION_DDOT":0}]
